{"type": "FeatureCollection", "features": [ {"type": "Feature", "properties": {"norad_id": 33701, "name": "FENGYUN 1C DEB", "group": "fengyun-1c-debris", "lat": -16.320702856256236, "lon": -59.10951660029997, "alt_km": 970.8933325581183, "timestamp": "2025-12-09T18:55:17.518946+00:00", "meta": {"OBJECT_NAME": "FENGYUN 1C DEB", "OBJECT_ID": "1999-025DGN", "EPOCH": "2025-11-19T19:29:54.481632", "MEAN_MOTION": 14.02181122, "ECCENTRICITY": 0.01331995, "INCLINATION": 98.6598, "RA_OF_ASC_NODE": 279.346, "ARG_OF_PERICENTER": 252.9525, "MEAN_ANOMALY": 105.7013, "EPHEMERIS_TYPE": 0, "CLASSIFICATION_TYPE": "U", "NORAD_CAT_ID": 33701, "ELEMENT_SET_NO": 999, "REV_AT_EPOCH": 90184, "BSTAR": 0.0018411078, "MEAN_MOTION_DOT": 3.003e-05, "MEAN_MOTION_DDOT": 0}, "tle": {"line1": "1 33701U 99025DGN 25323.81243613  .00003003  00000+0  18411-2 0  9994", "line2": "2 33701  98.6598 279.3460 0133199 252.9525 105.7013 14.02181122901849"}}, "geometry": {"type": "Point", "coordinates": [-59.10951660029997, -16.320702856256236]}}, {"type": "Feature", "properties": {"norad_id": 33710, "name": "FENGYUN 1C DEB", "group": "fengyun-1c-debris", "lat": -74.00615141126919, "lon": 116.10964394135563, "alt_km": 885.8279140547802, "timestamp": "2025-12-09T18:55:17.518956+00:00", "meta": {"OBJECT_NAME": "FENGYUN 1C DEB", "OBJECT_ID": "1999-025DGX", "EPOCH": "2025-12-09T12:29:01.050720", "MEAN_MOTION": 14.11621995, "ECCENTRICITY": 0.00561311, "INCLINATION": 98.9793, "RA_OF_ASC_NODE": 82.3622, "ARG_OF_PERICENTER": 156.297, "MEAN_ANOMALY": 204.0805, "EPHEMERIS_TYPE": 0, "CLASSIFICATION_TYPE": "U", "NORAD_CAT_ID": 33710, "ELEMENT_SET_NO": 999, "REV_AT_EPOCH": 67611, "BSTAR": 0.0017534639, "MEAN_MOTION_DOT": 3.191e-05, "MEAN_MOTION_DDOT": 0}, "tle": {"line1": "1 33710U 99025DGX 25343.52015105  .00003191  00000+0  17535-2 0  9991", "line2": "2 33710  98.9793  82.3622 0056131 156.2970 204.0805 14.11621995676119"}}, "geometry": {"type": "Point", "coordinates": [116.10964394135563, -74.00615141126919]}}, {"type": "Feature", "properties": {"norad_id": 33711, "name": "FENGYUN 1C DEB", "group": "fengyun-1c-debris", "lat": -4.665968921403264, "lon": -143.5099002728535, "alt_km": 937.282557435019, "timestamp": "2025-12-09T18:55:17.518966+00:00", "meta": {"OBJECT_NAME": "FENGYUN 1C DEB", "OBJECT_ID": "1999-025DGY", "EPOCH": "2025-12-09T15:20:14.472960", "MEAN_MOTION": 14.00911, "ECCENTRICITY": 0.0096874, "INCLINATION": 99.1834, "RA_OF_ASC_NODE": 37.0965, "ARG_OF_PERICENTER": 56.7702, "MEAN_ANOMALY": 94.2076, "EPHEMERIS_TYPE": 0, "CLASSIFICATION_TYPE": "U", "NORAD_CAT_ID": 33711, "ELEMENT_SET_NO": 999, "REV_AT_EPOCH": 91888, "BSTAR": 0.00086997471, "MEAN_MOTION_DOT": 1.31e-05, "MEAN_MOTION_DDOT": 0}, "tle": {"line1": "1 33711U 99025DGY 25343.63905640  .00001310  00000+0  86997-3 0  9996", "line2": "2 33711  99.1834  37.0965 0096874  56.7702  94.2076 14.00911000918880"}}, "geometry": {"type": "Point", "coordinates": [-143.5099002728535, -4.665968921403264]}}, {"type": "Feature", "properties": {"norad_id": 33716, "name": "FENGYUN 1C DEB", "group": "fengyun-1c-debris", "lat": 31.912881378851985, "lon": 94.88261805215885, "alt_km": 832.9424737084446, "timestamp": "2025-12-09T18:55:17.518976+00:00", "meta": {"OBJECT_NAME": "FENGYUN 1C DEB", "OBJECT_ID": "1999-025DHD", "EPOCH": "2025-12-08T13:44:40.185312", "MEAN_MOTION": 14.32662648, "ECCENTRICITY": 0.009384, "INCLINATION": 98.8734, "RA_OF_ASC_NODE": 268.0553, "ARG_OF_PERICENTER": 10.1003, "MEAN_ANOMALY": 350.2038, "EPHEMERIS_TYPE": 0, "CLASSIFICATION_TYPE": "U", "NORAD_CAT_ID": 33716, "ELEMENT_SET_NO": 999, "REV_AT_EPOCH": 65098, "BSTAR": 0.00037158, "MEAN_MOTION_DOT": 1.014e-05, "MEAN_MOTION_DDOT": 0}, "tle": {"line1": "1 33716U 99025DHD 25342.57268733  .00001014  00000+0  37158-3 0  9994", "line2": "2 33716  98.8734 268.0553 0093840  10.1003 350.2038 14.32662648650980"}}, "geometry": {"type": "Point", "coordinates": [94.88261805215885, 31.912881378851985]}}, {"type": "Feature", "properties": {"norad_id": 33718, "name": "FENGYUN 1C DEB", "group": "fengyun-1c-debris", "lat": 38.20717656796518, "lon": -102.10882741934398, "alt_km": 933.3854866434285, "timestamp": "2025-12-09T18:55:17.518986+00:00", "meta": {"OBJECT_NAME": "FENGYUN 1C DEB", "OBJECT_ID": "1999-025DHF", "EPOCH": "2025-12-07T23:36:59.966496", "MEAN_MOTION": 14.08034369, "ECCENTRICITY": 0.00977152, "INCLINATION": 99.6597, "RA_OF_ASC_NODE": 68.2574, "ARG_OF_PERICENTER": 333.0866, "MEAN_ANOMALY": 26.5251, "EPHEMERIS_TYPE": 0, "CLASSIFICATION_TYPE": "U", "NORAD_CAT_ID": 33718, "ELEMENT_SET_NO": 999, "REV_AT_EPOCH": 69119, "BSTAR": 0.0018666471, "MEAN_MOTION_DOT": 3.268e-05, "MEAN_MOTION_DDOT": 0}, "tle": {"line1": "1 33718U 99025DHF 25341.98402739  .00003268  00000+0  18666-2 0  9991", "line2": "2 33718  99.6597  68.2574 0097715 333.0866  26.5251 14.08034369691194"}}, "geometry": {"type": "Point", "coordinates": [-102.10882741934398, 38.20717656796518]}}, {"type": "Feature", "properties": {"norad_id": 33719, "name": "FENGYUN 1C DEB", "group": "fengyun-1c-debris", "lat": -29.899572282568453, "lon": -141.32813282916004, "alt_km": 831.1348904184351, "timestamp": "2025-12-09T18:55:17.518997+00:00", "meta": {"OBJECT_NAME": "FENGYUN 1C DEB", "OBJECT_ID": "1999-025DHG", "EPOCH": "2025-12-08T15:39:12.917376", "MEAN_MOTION": 14.23453689, "ECCENTRICITY": 0.00306606, "INCLINATION": 98.7736, "RA_OF_ASC_NODE": 42.634, "ARG_OF_PERICENTER": 91.6398, "MEAN_ANOMALY": 59.3133, "EPHEMERIS_TYPE": 0, "CLASSIFICATION_TYPE": "U", "NORAD_CAT_ID": 33719, "ELEMENT_SET_NO": 999, "REV_AT_EPOCH": 91955, "BSTAR": 0.0017609759, "MEAN_MOTION_DOT": 3.978e-05, "MEAN_MOTION_DDOT": 0}, "tle": {"line1": "1 33719U 99025DHG 25342.65223284  .00003978  00000+0  17610-2 0  9999", "line2": "2 33719  98.7736  42.6340 0030660  91.6398  59.3133 14.23453689919553"}}, "geometry": {"type": "Point", "coordinates": [-141.32813282916004, -29.899572282568453]}}, {"type": "Feature", "properties": {"norad_id": 33722, "name": "FENGYUN 1C DEB", "group": "fengyun-1c-debris", "lat": 49.45753157326628, "lon": -171.61305844027882, "alt_km": 889.2481478755308, "timestamp": "2025-12-09T18:55:17.519007+00:00", "meta": {"OBJECT_NAME": "FENGYUN 1C DEB", "OBJECT_ID": "1999-025DHK", "EPOCH": "2025-12-08T18:38:43.321056", "MEAN_MOTION": 14.21339483, "ECCENTRICITY": 0.01581157, "INCLINATION": 98.5747, "RA_OF_ASC_NODE": 357.2445, "ARG_OF_PERICENTER": 263.1984, "MEAN_ANOMALY": 95.1181, "EPHEMERIS_TYPE": 0, "CLASSIFICATION_TYPE": "U", "NORAD_CAT_ID": 33722, "ELEMENT_SET_NO": 999, "REV_AT_EPOCH": 92091, "BSTAR": 0.001297189, "MEAN_MOTION_DOT": 3.169e-05, "MEAN_MOTION_DDOT": 0}, "tle": {"line1": "1 33722U 99025DHK 25342.77689029  .00003169  00000+0  12972-2 0  9997", "line2": "2 33722  98.5747 357.2445 0158115 263.1984  95.1181 14.21339483920917"}}, "geometry": {"type": "Point", "coordinates": [-171.61305844027882, 49.45753157326628]}}, {"type": "Feature", "properties": {"norad_id": 33723, "name": "FENGYUN 1C DEB", "group": "fengyun-1c-debris", "lat": -38.4289355562695, "lon": 71.64625204281235, "alt_km": 787.000308407657, "timestamp": "2025-12-09T18:55:17.519017+00:00", "meta": {"OBJECT_NAME": "FENGYUN 1C DEB", "OBJECT_ID": "1999-025DHL", "EPOCH": "2025-12-06T11:33:11.056608", "MEAN_MOTION": 14.132294, "ECCENTRICITY": 0.00983, "INCLINATION": 99.1549, "RA_OF_ASC_NODE": 60.9133, "ARG_OF_PERICENTER": 348.5061, "MEAN_ANOMALY": 77.0859, "EPHEMERIS_TYPE": 0, "CLASSIFICATION_TYPE": "U", "NORAD_CAT_ID": 33723, "ELEMENT_SET_NO": 999, "REV_AT_EPOCH": 63535, "BSTAR": 0.0032867637, "MEAN_MOTION_DOT": 6.403e-05, "MEAN_MOTION_DDOT": 0}, "tle": {"line1": "1 33723U 99025DHL 25340.48137797  .00006403  00000+0  32868-2 0  9994", "line2": "2 33723  99.1549  60.9133 0098300 348.5061  77.0859 14.13229400635350"}}, "geometry": {"type": "Point", "coordinates": [71.64625204281235, -38.4289355562695]}}, {"type": "Feature", "properties": {"norad_id": 33724, "name": "FENGYUN 1C DEB", "group": "fengyun-1c-debris", "lat": -12.263314383605982, "lon": -3.9341135053163274, "alt_km": 849.0884673125684, "timestamp": "2025-12-09T18:55:17.519027+00:00", "meta": {"OBJECT_NAME": "FENGYUN 1C DEB", "OBJECT_ID": "1999-025DHM", "EPOCH": "2025-12-09T07:13:31.965024", "MEAN_MOTION": 14.19636698, "ECCENTRICITY": 0.0027263, "INCLINATION": 98.6042, "RA_OF_ASC_NODE": 353.7064, "ARG_OF_PERICENTER": 191.615, "MEAN_ANOMALY": 186.7752, "EPHEMERIS_TYPE": 0, "CLASSIFICATION_TYPE": "U", "NORAD_CAT_ID": 33724, "ELEMENT_SET_NO": 999, "REV_AT_EPOCH": 93913, "BSTAR": 0.00073906, "MEAN_MOTION_DOT": 1.524e-05, "MEAN_MOTION_DDOT": 0}, "tle": {"line1": "1 33724U 99025DHM 25343.30106441  .00001524  00000+0  73906-3 0  9999", "line2": "2 33724  98.6042 353.7064 0027263 191.6150 186.7752 14.19636698939135"}}, "geometry": {"type": "Point", "coordinates": [-3.9341135053163274, -12.263314383605982]}}, {"type": "Feature", "properties": {"norad_id": 33726, "name": "FENGYUN 1C DEB", "group": "fengyun-1c-debris", "lat": 33.887217656018855, "lon": 102.23158347889094, "alt_km": 703.6025824811795, "timestamp": "2025-12-09T18:55:17.519037+00:00", "meta": {"OBJECT_NAME": "FENGYUN 1C DEB", "OBJECT_ID": "1999-025DHP", "EPOCH": "2025-12-09T04:03:01.278720", "MEAN_MOTION": 14.14297509, "ECCENTRICITY": 0.01929908, "INCLINATION": 98.6388, "RA_OF_ASC_NODE": 107.4925, "ARG_OF_PERICENTER": 41.301, "MEAN_ANOMALY": 80.2474, "EPHEMERIS_TYPE": 0, "CLASSIFICATION_TYPE": "U", "NORAD_CAT_ID": 33726, "ELEMENT_SET_NO": 999, "REV_AT_EPOCH": 91881, "BSTAR": 0.00040884425, "MEAN_MOTION_DOT": 8.92e-06, "MEAN_MOTION_DDOT": 0}, "tle": {"line1": "1 33726U 99025DHP 25343.16876480  .00000892  00000+0  40884-3 0  9998", "line2": "2 33726  98.6388 107.4925 0192990  41.3010  80.2474 14.14297509918816"}}, "geometry": {"type": "Point", "coordinates": [102.23158347889094, 33.887217656018855]}}]}